[{"OBJECT_NAME":"PHISAT 2","OBJECT_ID":"2024-149C","EPOCH":"2026-03-09T18:55:12.732384","MEAN_MOTION":15.29548632,"ECCENTRICITY":0.00011753,"INCLINATION":97.3806,"RA_OF_ASC_NODE":148.6498,"ARG_OF_PERICENTER":168.623,"MEAN_ANOMALY":191.5037,"EPHEMERIS_TYPE":0,"CLASSIFICATION_TYPE":"U","NORAD_CAT_ID":60470,"ELEMENT_SET_NO":999,"REV_AT_EPOCH":8679,"BSTAR":0.00031420974,"MEAN_MOTION_DOT":8.925e-5,"MEAN_MOTION_DDOT":0},{"OBJECT_NAME":"STARLINK-36122","OBJECT_ID":"2025-286AD","EPOCH":"2026-03-09T04:21:40.738464","MEAN_MOTION":15.30185779,"ECCENTRICITY":0.00010131,"INCLINATION":53.1591,"RA_OF_ASC_NODE":1.1881,"ARG_OF_PERICENTER":73.135,"MEAN_ANOMALY":286.9762,"EPHEMERIS_TYPE":0,"CLASSIFICATION_TYPE":"U","NORAD_CAT_ID":66952,"ELEMENT_SET_NO":999,"REV_AT_EPOCH":1533,"BSTAR":0.001088633,"MEAN_MOTION_DOT":0.00032008,"MEAN_MOTION_DDOT":0}]
